[{"OBJECT_NAME":"TRANSPORTER-10 OBJECT AD","OBJECT_ID":"2024-043AD","EPOCH":"2026-03-09T20:38:52.416960","MEAN_MOTION":15.34189901,"ECCENTRICITY":0.00089841,"INCLINATION":97.547,"RA_OF_ASC_NODE":207.3753,"ARG_OF_PERICENTER":221.4908,"MEAN_ANOMALY":138.5653,"EPHEMERIS_TYPE":0,"CLASSIFICATION_TYPE":"U","NORAD_CAT_ID":59125,"ELEMENT_SET_NO":999,"REV_AT_EPOCH":11202,"BSTAR":0.00036310552,"MEAN_MOTION_DOT":0.00011954,"MEAN_MOTION_DDOT":0},{"OBJECT_NAME":"STARLINK-34365","OBJECT_ID":"2025-139H","EPOCH":"2026-03-09T10:47:30.577344","MEAN_MOTION":15.30218259,"ECCENTRICITY":0.00010975,"INCLINATION":53.1567,"RA_OF_ASC_NODE":128.4161,"ARG_OF_PERICENTER":93.2285,"MEAN_ANOMALY":266.8841,"EPHEMERIS_TYPE":0,"CLASSIFICATION_TYPE":"U","NORAD_CAT_ID":64671,"ELEMENT_SET_NO":999,"REV_AT_EPOCH":4030,"BSTAR":0.00089298382,"MEAN_MOTION_DOT":0.00026197,"MEAN_MOTION_DDOT":0}]
